{
    "links": {
        "self": "http://www.neowsapp.com/rest/v1/neo/3655870?api_key=iIulBulltgU6a56xZRHN4H3l9WmuAYTsLGpBGhQ2"
    },
    "id": "3655870",
    "neo_reference_id": "3655870",
    "name": "(2014 AY32)",
    "designation": "2014 AY32",
    "nasa_jpl_url": "http://ssd.jpl.nasa.gov/sbdb.cgi?sstr=3655870",
    "absolute_magnitude_h": 26.6,
    "estimated_diameter": {
        "kilometers": {
            "estimated_diameter_min": 0.0127219879,
            "estimated_diameter_max": 0.0284472297
        },
        "meters": {
            "estimated_diameter_min": 12.7219878539,
            "estimated_diameter_max": 28.4472296503
        },
        "miles": {
            "estimated_diameter_min": 0.0079050743,
            "estimated_diameter_max": 0.0176762835
        },
        "feet": {
            "estimated_diameter_min": 41.7388066307,
            "estimated_diameter_max": 93.330808926
        }
    },
    "is_potentially_hazardous_asteroid": false,
    "close_approach_data": [
        {
            "close_approach_date": "2014-01-06",
            "close_approach_date_full": "2014-Jan-06 07:59",
            "epoch_date_close_approach": 1388995140000,
            "relative_velocity": {
                "kilometers_per_second": "8.208702774",
                "kilometers_per_hour": "29551.3299864924",
                "miles_per_hour": "18362.047235218"
            },
            "miss_distance": {
                "astronomical": "0.0299357836",
                "lunar": "11.6450198204",
                "kilometers": "4478329.463340932",
                "miles": "2782704.8927795816"
            },
            "orbiting_body": "Earth"
        }
    ],
    "orbital_data": {
        "orbit_id": "5",
        "orbit_determination_date": "2017-04-06 08:42:57",
        "first_observation_date": "2014-01-07",
        "last_observation_date": "2014-01-12",
        "data_arc_in_days": 5,
        "observations_used": 32,
        "orbit_uncertainty": "8",
        "minimum_orbit_intersection": ".0130859",
        "jupiter_tisserand_invariant": "3.356",
        "epoch_osculation": "2456666.5",
        "eccentricity": ".5691688688696078",
        "semi_major_axis": "2.297925994420676",
        "inclination": "2.662887069366319",
        "ascending_node_longitude": "105.741411737665",
        "orbital_period": "1272.337958033668",
        "perihelion_distance": ".9900180554301911",
        "perihelion_argument": "341.1368722161605",
        "aphelion_distance": "3.60583393341116",
        "perihelion_time": "2456649.436162207850",
        "mean_anomaly": "4.828105273749481",
        "mean_motion": ".2829436925361884",
        "equinox": "J2000",
        "orbit_class": {
            "orbit_class_type": "APO",
            "orbit_class_description": "Near-Earth asteroid orbits which cross the Earth’s orbit similar to that of 1862 Apollo",
            "orbit_class_range": "a (semi-major axis) > 1.0 AU; q (perihelion) < 1.017 AU"
        }
    },
    "is_sentry_object": false
}